[{"OBJECT_NAME":"OBJECT B","OBJECT_ID":"2022-023B","EPOCH":"2026-03-09T22:47:53.401632","MEAN_MOTION":15.18262382,"ECCENTRICITY":0.00937159,"INCLINATION":63.476,"RA_OF_ASC_NODE":246.6999,"ARG_OF_PERICENTER":346.6129,"MEAN_ANOMALY":13.2499,"EPHEMERIS_TYPE":0,"CLASSIFICATION_TYPE":"U","NORAD_CAT_ID":51947,"ELEMENT_SET_NO":999,"REV_AT_EPOCH":22265,"BSTAR":0.00086643699,"MEAN_MOTION_DOT":0.00019848,"MEAN_MOTION_DDOT":0},{"OBJECT_NAME":"STARLINK-3976","OBJECT_ID":"2022-053T","EPOCH":"2026-03-09T12:05:07.021536","MEAN_MOTION":15.0883706,"ECCENTRICITY":0.00013397,"INCLINATION":53.2174,"RA_OF_ASC_NODE":154.9554,"ARG_OF_PERICENTER":82.5118,"MEAN_ANOMALY":277.6027,"EPHEMERIS_TYPE":0,"CLASSIFICATION_TYPE":"U","NORAD_CAT_ID":52673,"ELEMENT_SET_NO":999,"REV_AT_EPOCH":21101,"BSTAR":-8.253538e-6,"MEAN_MOTION_DOT":-4.19e-6,"MEAN_MOTION_DDOT":0}]
